NORAD_CAT_ID,OBJECT_NAME,OBJECT_TYPE,EPOCH,MEAN_MOTION,ECCENTRICITY,INCLINATION,RA_OF_ASC_NODE,ARG_OF_PERICENTER,MEAN_ANOMALY,BSTAR,MEAN_MOTION_DOT,MEAN_MOTION_DDOT,TLE_LINE0,TLE_LINE1,TLE_LINE2,SEMIMAJOR_AXIS,PERIOD,APOGEE,PERIGEE,DECAYED
53398.0,STARLINK-4512,PAYLOAD,2023-04-01 18:55:54,15.08833002,0.0001404,53.2161,260.5616,80.2323,279.8828,7.1326e-06,-1.74e-06,0.0,0 STARLINK-4512,1 53398U 22097L   23091.78882957 -.00000174  00000-0  71326-5 0  9994,2 53398  53.2161 260.5616 0001404  80.2323 279.8828 15.08833002 36543,6917.902,95.438,540.738,538.796,0.0
53398.0,STARLINK-4512,PAYLOAD,2023-04-02 10:49:46,15.08846242,0.0001326,53.2161,257.5878,77.6411,282.473,0.00041236,6.282e-05,0.0,0 STARLINK-4512,1 53398U 22097L   23092.45122863  .00006282  00000-0  41236-3 0  9992,2 53398  53.2161 257.5878 0001326  77.6411 282.4730 15.08846242 36643,6917.861,95.437,540.644,538.809,0.0
53398.0,STARLINK-4512,PAYLOAD,2023-04-02 17:11:18,15.08854293,0.0001123,53.2152,256.3977,75.8021,284.3095,0.00089749,0.0001403,0.0,0 STARLINK-4512,1 53398U 22097L   23092.71618747  .00014030  00000-0  89749-3 0  9993,2 53398  53.2152 256.3977 0001123  75.8021 284.3095 15.08854293 36192,6917.837,95.437,540.479,538.925,0.0
53398.0,STARLINK-4512,PAYLOAD,2023-04-03 04:19:00,15.08851954,0.000111,53.2134,254.3175,62.3814,297.7291,0.00046555,7.132e-05,0.0,0 STARLINK-4512,1 53398U 22097L   23093.17986549  .00007132  00000-0  46555-3 0  9995,2 53398  53.2134 254.3175 0001110  62.3814 297.7291 15.08851954 36262,6917.844,95.437,540.477,538.941,0.0
53398.0,STARLINK-4512,PAYLOAD,2023-04-03 10:40:33,15.08839542,0.0001387,53.216,253.1274,75.6152,284.4994,9.254e-05,1.185e-05,0.0,0 STARLINK-4512,1 53398U 22097L   23093.44483000  .00001185  00000-0  92540-4 0  9997,2 53398  53.2160 253.1274 0001387  75.6152 284.4994 15.08839542 36303,6917.882,95.438,540.706,538.787,0.0
53398.0,STARLINK-4512,PAYLOAD,2023-04-03 20:12:51,15.08846982,0.0001465,53.215,251.3433,76.8862,283.2294,0.00040244,6.124e-05,0.0,0 STARLINK-4512,1 53398U 22097L   23093.84226824  .00006124  00000-0  40244-3 0  9991,2 53398  53.2150 251.3433 0001465  76.8862 283.2294 15.08846982 36853,6917.859,95.437,540.738,538.711,0.0
53398.0,STARLINK-4512,PAYLOAD,2023-04-04 10:31:20,15.08840438,0.0001629,53.2137,248.666,83.1953,276.9224,0.00032813,4.938e-05,0.0,0 STARLINK-4512,1 53398U 22097L   23094.43843118  .00004938  00000-0  32813-3 0  9992,2 53398  53.2137 248.6660 0001629  83.1953 276.9224 15.08840438 36945,6917.879,95.438,540.871,538.617,0.0
53398.0,STARLINK-4512,PAYLOAD,2023-04-04 20:03:39,15.08847295,0.0001537,53.2129,246.8799,87.9888,272.128,0.00028987,4.329e-05,0.0,0 STARLINK-4512,1 53398U 22097L   23094.83586818  .00004329  00000-0  28987-3 0  9998,2 53398  53.2129 246.8799 0001537  87.9888 272.1280 15.08847295 36517,6917.858,95.437,540.786,538.66,0.0
53398.0,STARLINK-4512,PAYLOAD,2023-04-05 13:32:53,15.0883884,0.0001491,53.2136,243.6084,95.1119,265.0043,9.762e-05,1.266e-05,0.0,0 STARLINK-4512,1 53398U 22097L   23095.56451096  .00001266  00000-0  97620-4 0  9996,2 53398  53.2136 243.6084 0001491  95.1119 265.0043 15.08838840 37115,6917.884,95.438,540.78,538.717,0.0
53398.0,STARLINK-4512,PAYLOAD,2023-04-05 15:08:16,15.08839189,0.000142,53.2146,243.3115,93.1139,267.0016,9.9681e-05,1.299e-05,0.0,0 STARLINK-4512,1 53398U 22097L   23095.63075084  .00001299  00000-0  99681-4 0  9998,2 53398  53.2146 243.3115 0001420  93.1139 267.0016 15.08839189 36635,6917.883,95.438,540.73,538.766,0.0
53398.0,STARLINK-4512,PAYLOAD,2023-04-05 16:43:39,15.08841345,0.0001319,53.2145,243.0145,87.7251,272.3892,0.00014354,1.997e-05,0.0,0 STARLINK-4512,1 53398U 22097L   23095.69699018  .00001997  00000-0  14354-3 0  9991,2 53398  53.2145 243.0145 0001319  87.7251 272.3892 15.08841345 37139,6917.876,95.437,540.654,538.829,0.0
53398.0,STARLINK-4512,PAYLOAD,2023-04-06 08:37:31,15.08837362,0.0001138,53.2157,240.0417,82.7308,277.3813,7.1485e-05,8.5e-06,0.0,0 STARLINK-4512,1 53398U 22097L   23096.35939269  .00000850  00000-0  71485-4 0  9996,2 53398  53.2157 240.0417 0001138  82.7308 277.3813 15.08837362 37231,6917.888,95.438,540.541,538.966,0.0
53398.0,STARLINK-4512,PAYLOAD,2023-04-06 18:09:50,15.08842715,0.0001403,53.2171,238.2591,92.6897,267.4256,9.0049e-05,1.146e-05,0.0,0 STARLINK-4512,1 53398U 22097L   23096.75682970  .00001146  00000-0  90049-4 0  9990,2 53398  53.2171 238.2591 0001403  92.6897 267.4256 15.08842715 36808,6917.872,95.437,540.708,538.767,0.0
53398.0,STARLINK-4512,PAYLOAD,2023-04-07 10:03:41,15.08836472,0.0001498,53.2192,235.2857,96.3152,263.8011,8.5535e-05,1.073e-05,0.0,0 STARLINK-4512,1 53398U 22097L   23097.41923422  .00001073  00000-0  85535-4 0  9997,2 53398  53.2192 235.2857 0001498  96.3152 263.8011 15.08836472 36905,6917.891,95.438,540.792,538.72,0.0
53398.0,STARLINK-4512,PAYLOAD,2023-04-08 13:05:14,15.08850073,0.0001785,53.221,230.2319,104.9415,255.1775,0.00016884,2.401e-05,0.0,0 STARLINK-4512,1 53398U 22097L   23098.54530807  .00002401  00000-0  16884-3 0  9999,2 53398  53.2210 230.2319 0001785 104.9415 255.1775 15.08850073 37074,6917.85,95.437,540.949,538.48,0.0
53398.0,STARLINK-4512,PAYLOAD,2023-04-09 09:45:16,15.08832317,0.0001473,53.2184,226.3641,84.1145,276.0015,8.3941e-05,1.048e-05,0.0,0 STARLINK-4512,1 53398U 22097L   23099.40644164  .00001048  00000-0  83941-4 0  9992,2 53398  53.2184 226.3641 0001473  84.1145 276.0015 15.08832317 37206,6917.904,95.438,540.788,538.75,0.0
53398.0,STARLINK-4512,PAYLOAD,2023-04-09 14:31:26,15.08831702,0.0001523,53.2176,225.4701,94.1739,265.9427,1.7435e-05,-1.1e-07,0.0,0 STARLINK-4512,1 53398U 22097L   23099.60516410 -.00000011  00000-0  17435-4 0  9991,2 53398  53.2176 225.4701 0001523  94.1739 265.9427 15.08831702 37728,6917.906,95.438,540.824,538.717,0.0
53398.0,STARLINK-4512,PAYLOAD,2023-04-10 08:00:40,15.08843819,0.0001484,53.2178,222.1995,83.8469,276.2693,-3.1113e-05,-7.83e-06,0.0,0 STARLINK-4512,1 53398U 22097L   23100.33380147 -.00000783  00000-0 -31113-4 0  9996,2 53398  53.2178 222.1995 0001484  83.8469 276.2693 15.08843819 37834,6917.869,95.437,540.76,538.707,0.0
53398.0,STARLINK-4512,PAYLOAD,2023-04-11 01:29:53,15.08856533,0.0001694,53.2184,218.9297,72.605,287.5128,3.7853e-05,3.15e-06,0.0,0 STARLINK-4512,1 53398U 22097L   23101.06242902  .00000315  00000-0  37853-4 0  9999,2 53398  53.2184 218.9297 0001694  72.6050 287.5128 15.08856533 37457,6917.83,95.437,540.867,538.523,0.0
53398.0,STARLINK-4512,PAYLOAD,2023-04-11 11:02:13,15.08841763,0.000177,53.2143,217.1476,56.7897,303.3265,0.00028213,4.205e-05,0.0,0 STARLINK-4512,1 53398U 22097L   23101.45988046  .00004205  00000-0  28213-3 0  9999,2 53398  53.2143 217.1476 0001770  56.7897 303.3265 15.08841763 37514,6917.875,95.437,540.964,538.516,0.0
53398.0,STARLINK-4512,PAYLOAD,2023-04-11 17:23:45,15.08854705,0.0001406,53.2152,215.9519,100.2889,259.8262,0.00034126,5.15e-05,0.0,0 STARLINK-4512,1 53398U 22097L   23101.72483077  .00005150  00000-0  34126-3 0  9993,2 53398  53.2152 215.9519 0001406 100.2889 259.8262 15.08854705 38041,6917.835,95.437,540.673,538.728,0.0
53398.0,STARLINK-4512,PAYLOAD,2023-04-12 14:03:46,15.08842622,0.0001551,53.2158,212.0912,78.4571,281.6595,4.5891e-05,4.42e-06,0.0,0 STARLINK-4512,1 53398U 22097L   23102.58595707  .00000442  00000-0  45891-4 0  9993,2 53398  53.2158 212.0912 0001551  78.4571 281.6595 15.08842622 37683,6917.872,95.437,540.81,538.664,0.0
53398.0,STARLINK-4512,PAYLOAD,2023-04-13 13:54:32,15.08856708,0.0001287,53.2148,207.6267,87.6805,272.4334,0.00025048,3.703e-05,0.0,0 STARLINK-4512,1 53398U 22097L   23103.57954808  .00003703  00000-0  25048-3 0  9998,2 53398  53.2148 207.6267 0001287  87.6805 272.4334 15.08856708 37839,6917.829,95.436,540.585,538.804,0.0
53398.0,STARLINK-4512,PAYLOAD,2023-04-14 07:23:47,15.08843564,0.0001132,53.2157,204.3632,91.8478,268.2643,0.0001518,2.129e-05,0.0,0 STARLINK-4512,1 53398U 22097L   23104.30819252  .00002129  00000-0  15180-3 0  9990,2 53398  53.2157 204.3632 0001132  91.8478 268.2643 15.08843564 37945,6917.869,95.437,540.518,538.951,0.0
53398.0,STARLINK-4512,PAYLOAD,2023-04-14 12:09:57,15.08835653,0.000125,53.2175,203.4693,93.1907,266.9229,9.9275e-06,-1.3e-06,0.0,0 STARLINK-4512,1 53398U 22097L   23104.50691805 -.00000130  00000-0  99275-5 0  9994,2 53398  53.2175 203.4693 0001250  93.1907 266.9229 15.08835653 38468,6917.894,95.438,540.623,538.894,0.0
53398.0,STARLINK-4512,PAYLOAD,2023-04-15 13:36:07,15.08850592,0.0001142,53.217,198.711,95.3554,264.7568,9.1082e-05,1.162e-05,0.0,0 STARLINK-4512,1 53398U 22097L   23105.56675083  .00001162  00000-0  91082-4 0  9993,2 53398  53.2170 198.7110 0001142  95.3554 264.7568 15.08850592 38130,6917.848,95.437,540.503,538.923,0.0
53398.0,STARLINK-4512,PAYLOAD,2023-04-15 18:22:15,15.0886387,8.42e-05,53.2151,197.8147,123.6455,236.4618,0.00026845,3.99e-05,0.0,0 STARLINK-4512,1 53398U 22097L   23105.76546159  .00003990  00000-0  26845-3 0  9991,2 53398  53.2151 197.8147 0000842 123.6455 236.4618 15.08863870 38168,6917.807,95.436,540.255,539.09,0.0
53398.0,STARLINK-4512,PAYLOAD,2023-04-15 23:08:26,15.08826512,5.5e-05,53.2171,196.9277,216.0594,144.0361,-0.00019347,-3.364e-05,0.0,0 STARLINK-4512,1 53398U 22097L   23105.96419566 -.00003364  00000-0 -19347-3 0  9990,2 53398  53.2171 196.9277 0000550 216.0594 144.0361 15.08826512 38195,6917.922,95.438,540.167,539.406,0.0
53398.0,STARLINK-4512,PAYLOAD,2023-04-16 13:26:54,15.08843427,0.0001072,53.2163,194.2499,91.6853,268.4261,0.0001429,1.987e-05,0.0,0 STARLINK-4512,1 53398U 22097L   23106.56035475  .00001987  00000-0  14290-3 0  9999,2 53398  53.2163 194.2499 0001072  91.6853 268.4261 15.08843427 38282,6917.87,95.437,540.477,538.993,0.0
53398.0,STARLINK-4512,PAYLOAD,2023-04-16 18:13:03,15.08858539,8.41e-05,53.2159,193.3528,107.7675,252.3409,0.00039644,6.03e-05,0.0,0 STARLINK-4512,1 53398U 22097L   23106.75906707  .00006030  00000-0  39644-3 0  9999,2 53398  53.2159 193.3528 0000841 107.7675 252.3409 15.08858539 38314,6917.824,95.436,540.271,539.107,0.0
